STARLINK-32679          
1 62507U 25003W   26068.01466806  .00036432  00000+0  13254-2 0  9997
2 62507  43.0015 293.1482 0001296 271.2196  88.8507 15.27616229 66560
FLOCK 4G-5              
1 62663U 25009BG  26068.45638436  .00011278  00000+0  40688-3 0  9997
2 62663  97.4058 151.2478 0002094 314.5072  45.5996 15.28679529 63699
